CCSDS_OMM_VERS,COMMENT,CREATION_DATE,ORIGINATOR,OBJECT_NAME,OBJECT_ID,CENTER_NAME,REF_FRAME,TIME_SYSTEM,MEAN_ELEMENT_THEORY,EPOCH,MEAN_MOTION,ECCENTRICITY,INCLINATION,RA_OF_ASC_NODE,ARG_OF_PERICENTER,MEAN_ANOMALY,EPHEMERIS_TYPE,CLASSIFICATION_TYPE,NORAD_CAT_ID,ELEMENT_SET_NO,REV_AT_EPOCH,BSTAR,MEAN_MOTION_DOT,MEAN_MOTION_DDOT,SEMIMAJOR_AXIS,PERIOD,APOAPSIS,PERIAPSIS,OBJECT_TYPE,RCS_SIZE,COUNTRY_CODE,LAUNCH_DATE,SITE,DECAY_DATE,FILE,GP_ID,TLE_LINE0,TLE_LINE1,TLE_LINE2
2,GENERATED VIA SPACE-TRACK.ORG API,2005-11-01T11:49:15,18 SPCS,BREEZE-M R/B,2000-029B,EARTH,TEME,UTC,SGP4,2005-10-31T11:28:31.933631,1.003862,0.0258832,3.1629,76.2999,135.3809,226.7962,0,U,26373,999,1983,0.0,6.1e-07,0,42132.714,1434.46,36845.109,34664.05,ROCKET BODY,,CIS,2000-06-06,TTMTR,,199638,55300966,0 BREEZE-M R/B,1 26373U 00029B   05304.47814738  .00000061  00000-0  00000+0 0  9992,2 26373 003.1629 076.2999 0258832 135.3809 226.7962 01.00386200 19838
2,GENERATED VIA SPACE-TRACK.ORG API,2005-11-01T07:08:53,18 SPCS,BREEZE-M R/B,2000-029B,EARTH,TEME,UTC,SGP4,2005-10-31T11:28:42.016511,1.00386179,0.0258765,3.1629,76.2995,135.3583,226.8622,0,U,26373,999,1983,0.0,6.1e-07,0,42132.72,1434.46,36844.832,34664.338,ROCKET BODY,,CIS,2000-06-06,TTMTR,,199472,55298914,0 BREEZE-M R/B,1 26373U 00029B   05304.47826408  .00000061  00000-0  00000+0 0  9999,2 26373 003.1629 076.2995 0258765 135.3583 226.8622 01.00386179 19837
2,GENERATED VIA SPACE-TRACK.ORG API,2005-11-03T08:10:31,18 SPCS,BREEZE-M R/B,2000-029B,EARTH,TEME,UTC,SGP4,2005-11-01T11:22:44.761151,1.0038653,0.025885,3.1653,76.2932,135.4037,226.726,0,U,26373,999,1984,0.0,6.4e-07,0,42132.622,1434.455,36845.09,34663.884,ROCKET BODY,,CIS,2000-06-06,TTMTR,,200296,55321113,0 BREEZE-M R/B,1 26373U 00029B   05305.47412918 +.00000064 +00000-0 +00000-0 0  9991,2 26373 003.1653 076.2932 0258850 135.4037 226.7260 01.00386530019844
2,GENERATED VIA SPACE-TRACK.ORG API,2005-11-04T06:10:30,18 SPCS,BREEZE-M R/B,2000-029B,EARTH,TEME,UTC,SGP4,2005-11-02T11:16:55.774272,1.00386858,0.0258853,3.1678,76.2869,135.4296,226.646,0,U,26373,999,1985,0.0,6.4e-07,0,42132.53,1434.45,36845.008,34663.782,ROCKET BODY,,CIS,2000-06-06,TTMTR,,200585,55336042,0 BREEZE-M R/B,1 26373U 00029B   05306.47008998 +.00000064 +00000-0 +00000-0 0  9991,2 26373 003.1678 076.2869 0258853 135.4296 226.6460 01.00386858019855
2,GENERATED VIA SPACE-TRACK.ORG API,2005-11-04T07:30:07,18 SPCS,BREEZE-M R/B,2000-029B,EARTH,TEME,UTC,SGP4,2005-11-03T11:11:07.136448,1.00387154,0.0258819,3.1702,76.2801,135.4451,226.579,0,U,26373,999,1986,0.0,6.3e-07,0,42132.447,1434.446,36844.78,34663.844,ROCKET BODY,,CIS,2000-06-06,TTMTR,,200614,55337032,0 BREEZE-M R/B,1 26373U 00029B   05307.46605482  .00000063  00000-0  00000+0 0  9990,2 26373 003.1702 076.2801 0258819 135.4451 226.5790 01.00387154 19860
2,GENERATED VIA SPACE-TRACK.ORG API,2005-11-07T09:37:07,18 SPCS,BREEZE-M R/B,2000-029B,EARTH,TEME,UTC,SGP4,2005-11-04T11:05:20.779583,1.00387462,0.0258756,3.1727,76.2729,135.4504,226.5345,0,U,26373,999,1987,0.0,5.9e-07,0,42132.361,1434.442,36844.426,34664.026,ROCKET BODY,,CIS,2000-06-06,TTMTR,,200838,55352189,0 BREEZE-M R/B,1 26373U 00029B   05308.46204606 +.00000059 +00000-0 +00000-0 0  9990,2 26373 003.1727 076.2729 0258756 135.4504 226.5345 01.00387462019874
2,GENERATED VIA SPACE-TRACK.ORG API,2005-11-07T09:37:07,18 SPCS,BREEZE-M R/B,2000-029B,EARTH,TEME,UTC,SGP4,2005-11-05T10:59:38.322815,1.00387721,0.025874,3.1753,76.2678,135.4564,226.5022,0,U,26373,999,1988,0.0,5.3e-07,0,42132.289,1434.438,36844.284,34664.023,ROCKET BODY,,CIS,2000-06-06,TTMTR,,200839,55359855,0 BREEZE-M R/B,1 26373U 00029B   05309.45808244 +.00000053 +00000-0 +00000-0 0  9992,2 26373 003.1753 076.2678 0258740 135.4564 226.5022 01.00387721019886
2,GENERATED VIA SPACE-TRACK.ORG API,2005-11-07T12:04:07,18 SPCS,BREEZE-M R/B,2000-029B,EARTH,TEME,UTC,SGP4,2005-11-07T10:48:25.970111,1.00388291,0.0258733,3.1804,76.2561,135.5008,226.4633,0,U,26373,999,1990,0.0,3.8e-07,0,42132.129,1434.43,36844.091,34663.897,ROCKET BODY,,CIS,2000-06-06,TTMTR,,201634,55368652,0 BREEZE-M R/B,1 26373U 00029B   05311.45030058  .00000038  00000-0  00000+0 0  9997,2 26373 003.1804 076.2561 0258733 135.5008 226.4633 01.00388291 19903
2,GENERATED VIA SPACE-TRACK.ORG API,2005-11-09T06:20:18,18 SPCS,BREEZE-M R/B,2000-029B,EARTH,TEME,UTC,SGP4,2005-11-07T10:48:26.940384,1.00388286,0.0258722,3.1804,76.256,135.4988,226.4694,0,U,26373,999,1990,0.0,3.8e-07,0,42132.131,1434.43,36844.046,34663.945,ROCKET BODY,,CIS,2000-06-06,TTMTR,,202404,55389416,0 BREEZE-M R/B,1 26373U 00029B   05311.45031181 +.00000038 +00000-0 +00000-0 0  9996,2 26373 003.1804 076.2560 0258722 135.4988 226.4694 01.00388286019907
2,GENERATED VIA SPACE-TRACK.ORG API,2005-11-10T05:11:02,18 SPCS,BREEZE-M R/B,2000-029B,EARTH,TEME,UTC,SGP4,2005-11-08T10:42:54.753983,1.00388579,0.0258717,3.1829,76.2496,135.5266,226.4635,0,U,26373,999,1991,0.0,3e-07,0,42132.049,1434.426,36843.941,34663.886,ROCKET BODY,,CIS,2000-06-06,TTMTR,,202721,55401021,0 BREEZE-M R/B,1 26373U 00029B   05312.44646706 +.00000030 +00000-0 +00000-0 0  9993,2 26373 003.1829 076.2496 0258717 135.5266 226.4635 01.00388579019917
2,GENERATED VIA SPACE-TRACK.ORG API,2005-11-11T07:10:27,18 SPCS,BREEZE-M R/B,2000-029B,EARTH,TEME,UTC,SGP4,2005-11-09T10:37:22.591775,1.00388856,0.0258692,3.1854,76.2445,135.5463,226.4652,0,U,26373,999,1992,0.0,2.3e-07,0,42131.971,1434.422,36843.756,34663.916,ROCKET BODY,,CIS,2000-06-06,TTMTR,,203126,55412297,0 BREEZE-M R/B,1 26373U 00029B   05313.44262259 +.00000023 +00000-0 +00000-0 0  9993,2 26373 003.1854 076.2445 0258692 135.5463 226.4652 01.00388856019928
2,GENERATED VIA SPACE-TRACK.ORG API,2005-11-11T07:33:21,18 SPCS,BREEZE-M R/B,2000-029B,EARTH,TEME,UTC,SGP4,2005-11-10T10:31:48.230687,1.00389134,0.0258716,3.1879,76.2392,135.5627,226.4623,0,U,26373,999,1993,0.0,1.7e-07,0,42131.893,1434.418,36843.778,34663.739,ROCKET BODY,,CIS,2000-06-06,TTMTR,,203149,55413339,0 BREEZE-M R/B,1 26373U 00029B   05314.43875267  .00000017  00000-0  00000+0 0  9994,2 26373 003.1879 076.2392 0258716 135.5627 226.4623 01.00389134 19934
2,GENERATED VIA SPACE-TRACK.ORG API,2005-11-13T09:10:35,18 SPCS,BREEZE-M R/B,2000-029B,EARTH,TEME,UTC,SGP4,2005-11-11T10:26:09.496032,1.00389417,0.0258848,3.1904,76.235,135.6308,226.3872,0,U,26373,999,1994,0.0,1.1e-07,0,42131.814,1434.414,36844.253,34663.105,ROCKET BODY,,CIS,2000-06-06,TTMTR,,203917,55436411,0 BREEZE-M R/B,1 26373U 00029B   05315.43483213 +.00000011 +00000-0 +00000-0 0  9996,2 26373 003.1904 076.2350 0258848 135.6308 226.3872 01.00389417019940
2,GENERATED VIA SPACE-TRACK.ORG API,2005-11-13T15:28:57,18 SPCS,BREEZE-M R/B,2000-029B,EARTH,TEME,UTC,SGP4,2005-11-13T10:14:37.889952,1.00389927,0.0259016,3.1954,76.2295,135.7024,226.2431,0,U,26373,999,1996,0.0,0.0,0,42131.671,1434.406,36844.814,34662.259,ROCKET BODY,,CIS,2000-06-06,TTMTR,,203985,55437391,0 BREEZE-M R/B,1 26373U 00029B   05317.42682743  .00000000  00000-0  00000+0 0  9993,2 26373 003.1954 076.2295 0259016 135.7024 226.2431 01.00389927 19965
2,GENERATED VIA SPACE-TRACK.ORG API,2005-11-15T07:10:32,18 SPCS,BREEZE-M R/B,2000-029B,EARTH,TEME,UTC,SGP4,2005-11-13T10:14:40.550207,1.00389915,0.0259121,3.1954,76.2317,135.7482,226.2032,0,U,26373,999,1996,0.0,1e-08,0,42131.675,1434.407,36845.26,34661.82,ROCKET BODY,,CIS,2000-06-06,TTMTR,,204570,55456579,0 BREEZE-M R/B,1 26373U 00029B   05317.42685822 +.00000001 +00000-0 +00000-0 0  9996,2 26373 003.1954 076.2317 0259121 135.7482 226.2032 01.00389915019969
2,GENERATED VIA SPACE-TRACK.ORG API,2005-11-16T06:10:29,18 SPCS,BREEZE-M R/B,2000-029B,EARTH,TEME,UTC,SGP4,2005-11-14T10:08:50.164512,1.00390192,0.0259036,3.1979,76.2247,135.7531,226.1522,0,U,26373,999,1997,0.0,-5e-08,0,42131.597,1434.403,36844.822,34662.102,ROCKET BODY,,CIS,2000-06-06,TTMTR,,204896,55467301,0 BREEZE-M R/B,1 26373U 00029B   05318.42280283 -.00000005 +00000-0 +00000-0 0  9994,2 26373 003.1979 076.2247 0259036 135.7531 226.1522 01.00390192019971
2,GENERATED VIA SPACE-TRACK.ORG API,2005-11-17T06:21:37,18 SPCS,BREEZE-M R/B,2000-029B,EARTH,TEME,UTC,SGP4,2005-11-15T10:02:57.748416,1.00390463,0.0258985,3.2005,76.2179,135.7434,226.1081,0,U,26373,999,1998,0.0,-1.1e-07,0,42131.521,1434.399,36844.53,34662.243,ROCKET BODY,,CIS,2000-06-06,TTMTR,,205297,55479575,0 BREEZE-M R/B,1 26373U 00029B   05319.41872394 -.00000011 +00000-0 +00000-0 0  9991,2 26373 003.2005 076.2179 0258985 135.7434 226.1081 01.00390463019982
2,GENERATED VIA SPACE-TRACK.ORG API,2005-11-17T05:25:48,18 SPCS,BREEZE-M R/B,2000-029B,EARTH,TEME,UTC,SGP4,2005-11-16T09:57:07.126847,1.00390723,0.025912,3.2029,76.2127,135.8348,225.9649,0,U,26373,999,1999,0.0,-1.7e-07,0,42131.449,1434.395,36845.024,34661.604,ROCKET BODY,,CIS,2000-06-06,TTMTR,,205243,55473334,0 BREEZE-M R/B,1 26373U 00029B   05320.41466582 -.00000017  00000-0  00000+0 0  9996,2 26373 003.2029 076.2127 0259120 135.8348 225.9649 01.00390723 19995
2,GENERATED VIA SPACE-TRACK.ORG API,2005-11-19T10:10:30,18 SPCS,BREEZE-M R/B,2000-029B,EARTH,TEME,UTC,SGP4,2005-11-18T09:45:36.450431,1.0039125,0.0259209,3.208,76.198,135.9167,225.8366,0,U,26373,999,2001,0.0,-2.4e-07,0,42131.301,1434.387,36845.247,34661.085,ROCKET BODY,,CIS,2000-06-06,TTMTR,,206118,55501344,0 BREEZE-M R/B,1 26373U 00029B   05322.40667188 -.00000024 +00000-0 +00000-0 0  9991,2 26373 003.2080 076.1980 0259209 135.9167 225.8366 01.00391250020012
2,GENERATED VIA SPACE-TRACK.ORG API,2005-11-20T11:10:28,18 SPCS,BREEZE-M R/B,2000-029B,EARTH,TEME,UTC,SGP4,2005-11-18T09:45:36.618911,1.0039125,0.025921,3.2081,76.198,135.9166,225.8374,0,U,26373,999,2001,0.0,-2.4e-07,0,42131.301,1434.387,36845.252,34661.081,ROCKET BODY,,CIS,2000-06-06,TTMTR,,206386,55511738,0 BREEZE-M R/B,1 26373U 00029B   05322.40667383 -.00000024 +00000-0 +00000-0 0  9998,2 26373 003.2081 076.1980 0259210 135.9166 225.8374 01.00391250020013
